{
  "type": "FeatureCollection",
  "features": [
    {
      "type": "Feature",
      "properties": {
        "norad_id": 33924,
        "name": "COSMOS 2251 DEB",
        "group": "cosmos-2251-debris",
        "lat": 9.79958844323546,
        "lon": 95.59202546684836,
        "alt_km": 1315.4456308699937,
        "timestamp": "2025-12-07T14:37:05.596629+00:00",
        "meta_object_name": "COSMOS 2251 DEB",
        "meta_object_id": "1993-036ED",
        "meta_epoch": "2025-12-06T21:44:53.609856",
        "meta_mean_motion": 13.50207617,
        "meta_eccentricity": 0.04040707,
        "meta_inclination": 73.9144,
        "meta_ra_of_asc_node": 279.5779,
        "meta_arg_of_pericenter": 316.0573,
        "meta_mean_anomaly": 40.9043,
        "meta_ephemeris_type": 0,
        "meta_classification_type": "U",
        "meta_norad_cat_id": 33924,
        "meta_element_set_no": 999,
        "meta_rev_at_epoch": 82660,
        "meta_bstar": 0.0018126653,
        "meta_mean_motion_dot": 1.899e-05,
        "meta_mean_motion_ddot": 0,
        "tle_line1": "1 33924U 93036ED  25340.90617604  .00001899  00000+0  18127-2 0  9996",
        "tle_line2": "2 33924  73.9144 279.5779 0404070 316.0573  40.9043 13.50207617826601"
      },
      "geometry": {
        "type": "Point",
        "coordinates": [
          95.59202546684836,
          9.79958844323546
        ]
      }
    },
    {
      "type": "Feature",
      "properties": {
        "norad_id": 33928,
        "name": "COSMOS 2251 DEB",
        "group": "cosmos-2251-debris",
        "lat": 73.6170225158276,
        "lon": 163.48730938556784,
        "alt_km": 730.8296117993486,
        "timestamp": "2025-12-07T14:37:05.596639+00:00",
        "meta_object_name": "COSMOS 2251 DEB",
        "meta_object_id": "1993-036EH",
        "meta_epoch": "2025-12-06T14:58:08.864544",
        "meta_mean_motion": 14.47387211,
        "meta_eccentricity": 0.00611612,
        "meta_inclination": 73.926,
        "meta_ra_of_asc_node": 64.0794,
        "meta_arg_of_pericenter": 359.531,
        "meta_mean_anomaly": 0.578,
        "meta_ephemeris_type": 0,
        "meta_classification_type": "U",
        "meta_norad_cat_id": 33928,
        "meta_element_set_no": 999,
        "meta_rev_at_epoch": 88556,
        "meta_bstar": 0.0004601036,
        "meta_mean_motion_dot": 1.698e-05,
        "meta_mean_motion_ddot": 0,
        "tle_line1": "1 33928U 93036EH  25340.62371371  .00001698  00000+0  46010-3 0  9997",
        "tle_line2": "2 33928  73.9260  64.0794 0061161 359.5310   0.5780 14.47387211885565"
      },
      "geometry": {
        "type": "Point",
        "coordinates": [
          163.48730938556784,
          73.6170225158276
        ]
      }
    },
    {
      "type": "Feature",
      "properties": {
        "norad_id": 33932,
        "name": "COSMOS 2251 DEB",
        "group": "cosmos-2251-debris",
        "lat": 28.177400523606156,
        "lon": -25.797634468326315,
        "alt_km": 736.7590655983122,
        "timestamp": "2025-12-07T14:37:05.596650+00:00",
        "meta_object_name": "COSMOS 2251 DEB",
        "meta_object_id": "1993-036EM",
        "meta_epoch": "2025-12-06T23:27:48.768192",
        "meta_mean_motion": 14.38731777,
        "meta_eccentricity": 0.00350121,
        "meta_inclination": 74.0345,
        "meta_ra_of_asc_node": 326.5449,
        "meta_arg_of_pericenter": 44.3448,
        "meta_mean_anomaly": 316.0501,
        "meta_ephemeris_type": 0,
        "meta_classification_type": "U",
        "meta_norad_cat_id": 33932,
        "meta_element_set_no": 999,
        "meta_rev_at_epoch": 87915,
        "meta_bstar": 0.00083411216,
        "meta_mean_motion_dot": 2.553e-05,
        "meta_mean_motion_ddot": 0,
        "tle_line1": "1 33932U 93036EM  25340.97764778  .00002553  00000+0  83411-3 0  9994",
        "tle_line2": "2 33932  74.0345 326.5449 0035012  44.3448 316.0501 14.38731777879150"
      },
      "geometry": {
        "type": "Point",
        "coordinates": [
          -25.797634468326315,
          28.177400523606156
        ]
      }
    },
    {
      "type": "Feature",
      "properties": {
        "norad_id": 33933,
        "name": "COSMOS 2251 DEB",
        "group": "cosmos-2251-debris",
        "lat": -24.646857935223032,
        "lon": 61.96722319351921,
        "alt_km": 798.1613078916307,
        "timestamp": "2025-12-07T14:37:05.596660+00:00",
        "meta_object_name": "COSMOS 2251 DEB",
        "meta_object_id": "1993-036EN",
        "meta_epoch": "2025-12-06T16:57:49.838112",
        "meta_mean_motion": 14.3347377,
        "meta_eccentricity": 0.00707766,
        "meta_inclination": 74.0893,
        "meta_ra_of_asc_node": 71.1312,
        "meta_arg_of_pericenter": 81.3426,
        "meta_mean_anomaly": 279.5735,
        "meta_ephemeris_type": 0,
        "meta_classification_type": "U",
        "meta_norad_cat_id": 33933,
        "meta_element_set_no": 999,
        "meta_rev_at_epoch": 87698,
        "meta_bstar": 0.00056626884,
        "meta_mean_motion_dot": 1.584e-05,
        "meta_mean_motion_ddot": 0,
        "tle_line1": "1 33933U 93036EN  25340.70682683  .00001584  00000+0  56627-3 0  9992",
        "tle_line2": "2 33933  74.0893  71.1312 0070776  81.3426 279.5735 14.33473770876985"
      },
      "geometry": {
        "type": "Point",
        "coordinates": [
          61.96722319351921,
          -24.646857935223032
        ]
      }
    },
    {
      "type": "Feature",
      "properties": {
        "norad_id": 33934,
        "name": "COSMOS 2251 DEB",
        "group": "cosmos-2251-debris",
        "lat": -19.623451043044298,
        "lon": 104.48997036810127,
        "alt_km": 704.1385765586756,
        "timestamp": "2025-12-07T14:37:05.596670+00:00",
        "meta_object_name": "COSMOS 2251 DEB",
        "meta_object_id": "1993-036EP",
        "meta_epoch": "2025-12-06T17:19:08.313600",
        "meta_mean_motion": 14.5902434,
        "meta_eccentricity": 0.00159078,
        "meta_inclination": 74.0381,
        "meta_ra_of_asc_node": 112.037,
        "meta_arg_of_pericenter": 235.7213,
        "meta_mean_anomaly": 124.2446,
        "meta_ephemeris_type": 0,
        "meta_classification_type": "U",
        "meta_norad_cat_id": 33934,
        "meta_element_set_no": 999,
        "meta_rev_at_epoch": 88651,
        "meta_bstar": 0.0017517426,
        "meta_mean_motion_dot": 8.224e-05,
        "meta_mean_motion_ddot": 0,
        "tle_line1": "1 33934U 93036EP  25340.72162400  .00008224  00000+0  17517-2 0  9997",
        "tle_line2": "2 33934  74.0381 112.0370 0015907 235.7213 124.2446 14.59024340886519"
      },
      "geometry": {
        "type": "Point",
        "coordinates": [
          104.48997036810127,
          -19.623451043044298
        ]
      }
    },
    {
      "type": "Feature",
      "properties": {
        "norad_id": 33936,
        "name": "COSMOS 2251 DEB",
        "group": "cosmos-2251-debris",
        "lat": -61.50159488401499,
        "lon": -100.8501133238299,
        "alt_km": 684.6783194072732,
        "timestamp": "2025-12-07T14:37:05.596680+00:00",
        "meta_object_name": "COSMOS 2251 DEB",
        "meta_object_id": "1993-036ER",
        "meta_epoch": "2025-12-06T21:03:09.580608",
        "meta_mean_motion": 14.60211245,
        "meta_eccentricity": 0.00279321,
        "meta_inclination": 74.0192,
        "meta_ra_of_asc_node": 48.6885,
        "meta_arg_of_pericenter": 205.1771,
        "meta_mean_anomaly": 154.8035,
        "meta_ephemeris_type": 0,
        "meta_classification_type": "U",
        "meta_norad_cat_id": 33936,
        "meta_element_set_no": 999,
        "meta_rev_at_epoch": 88804,
        "meta_bstar": 0.0011935502,
        "meta_mean_motion_dot": 5.76e-05,
        "meta_mean_motion_ddot": 0,
        "tle_line1": "1 33936U 93036ER  25340.87719422  .00005760  00000+0  11936-2 0  9998",
        "tle_line2": "2 33936  74.0192  48.6885 0027932 205.1771 154.8035 14.60211245888044"
      },
      "geometry": {
        "type": "Point",
        "coordinates": [
          -100.8501133238299,
          -61.50159488401499
        ]
      }
    },
    {
      "type": "Feature",
      "properties": {
        "norad_id": 33938,
        "name": "COSMOS 2251 DEB",
        "group": "cosmos-2251-debris",
        "lat": -11.568530866230095,
        "lon": -146.60202478463788,
        "alt_km": 732.3205705498513,
        "timestamp": "2025-12-07T14:37:05.596690+00:00",
        "meta_object_name": "COSMOS 2251 DEB",
        "meta_object_id": "1993-036ET",
        "meta_epoch": "2025-12-06T22:07:32.788992",
        "meta_mean_motion": 14.46766613,
        "meta_eccentricity": 0.00168718,
        "meta_inclination": 74.0458,
        "meta_ra_of_asc_node": 218.0374,
        "meta_arg_of_pericenter": 300.5876,
        "meta_mean_anomaly": 69.6849,
        "meta_ephemeris_type": 0,
        "meta_classification_type": "U",
        "meta_norad_cat_id": 33938,
        "meta_element_set_no": 999,
        "meta_rev_at_epoch": 88316,
        "meta_bstar": 0.00078789048,
        "meta_mean_motion_dot": 2.831e-05,
        "meta_mean_motion_ddot": 0,
        "tle_line1": "1 33938U 93036ET  25340.92190728  .00002831  00000+0  78789-3 0  9994",
        "tle_line2": "2 33938  74.0458 218.0374 0016871 300.5876  69.6849 14.46766613883165"
      },
      "geometry": {
        "type": "Point",
        "coordinates": [
          -146.60202478463788,
          -11.568530866230095
        ]
      }
    }
  ]
}